[{"OBJECT_NAME":"GREGOIRE","OBJECT_ID":"2023-084Q","EPOCH":"2026-03-09T22:27:34.471296","MEAN_MOTION":15.35838856,"ECCENTRICITY":0.00062831,"INCLINATION":97.6076,"RA_OF_ASC_NODE":209.2239,"ARG_OF_PERICENTER":318.3511,"MEAN_ANOMALY":41.7253,"EPHEMERIS_TYPE":0,"CLASSIFICATION_TYPE":"U","NORAD_CAT_ID":56946,"ELEMENT_SET_NO":999,"REV_AT_EPOCH":15246,"BSTAR":0.00033169769,"MEAN_MOTION_DOT":0.00011493,"MEAN_MOTION_DDOT":0},{"OBJECT_NAME":"STARLINK-32955","OBJECT_ID":"2025-039P","EPOCH":"2026-03-09T22:00:01.999584","MEAN_MOTION":15.35643396,"ECCENTRICITY":0.00092359,"INCLINATION":43.0013,"RA_OF_ASC_NODE":10.1549,"ARG_OF_PERICENTER":201.6454,"MEAN_ANOMALY":283.0913,"EPHEMERIS_TYPE":0,"CLASSIFICATION_TYPE":"U","NORAD_CAT_ID":63117,"ELEMENT_SET_NO":999,"REV_AT_EPOCH":575,"BSTAR":0.0033239594,"MEAN_MOTION_DOT":0.00119453,"MEAN_MOTION_DDOT":0}]
